[{"OBJECT_NAME":"STARLINK-36894","OBJECT_ID":"2026-038M","EPOCH":"2026-03-09T22:00:01.999584","MEAN_MOTION":15.8837511,"ECCENTRICITY":0.00012448,"INCLINATION":97.2707,"RA_OF_ASC_NODE":79.2246,"ARG_OF_PERICENTER":88.2794,"MEAN_ANOMALY":210.5373,"EPHEMERIS_TYPE":0,"CLASSIFICATION_TYPE":"U","NORAD_CAT_ID":67972,"ELEMENT_SET_NO":999,"REV_AT_EPOCH":323,"BSTAR":-0.0063063208,"MEAN_MOTION_DOT":-0.01498944,"MEAN_MOTION_DDOT":0},{"OBJECT_NAME":"ANGELS","OBJECT_ID":"2019-092D","EPOCH":"2026-03-09T13:15:26.304192","MEAN_MOTION":15.80250466,"ECCENTRICITY":0.00029449,"INCLINATION":97.4199,"RA_OF_ASC_NODE":283.5362,"ARG_OF_PERICENTER":190.9639,"MEAN_ANOMALY":169.1565,"EPHEMERIS_TYPE":0,"CLASSIFICATION_TYPE":"U","NORAD_CAT_ID":44876,"ELEMENT_SET_NO":999,"REV_AT_EPOCH":34660,"BSTAR":0.00085253194,"MEAN_MOTION_DOT":0.00162032,"MEAN_MOTION_DDOT":0}]
